IRIDIUM 171             
1 43929U 19002H   26024.08933972  .00000401  00000+0  13616-3 0  9998
2 43929  86.3938  54.0925 0002167  86.4494 273.6950 14.34216936368303
IRIDIUM 170             
1 43930U 19002J   26024.14158378  .00001758  00000+0  27482-3 0  9998
2 43930  86.6052  53.7720 0002352  87.8494 272.2992 14.72257581378063
IRIDIUM 167             
1 43931U 19002K   26024.15276058  .00000237  00000+0  77661-4 0  9992
2 43931  86.3927  53.7965 0002332  82.0195 278.1265 14.34220180368314
IRIDIUM 181             
1 56726U 23068S   26023.69332650  .00000435  00000+0  12313-3 0  9996
2 56726  86.4522 117.2089 0001788 100.1753 259.9650 14.43310295141592
IRIDIUM 177             
1 56727U 23068T   26023.99313513  .00001105  00000+0  14198-3 0  9995
2 56727  86.1940  37.2521 0002411  88.1097 272.0400 14.80222360145034
IRIDIUM 174             
1 56728U 23068U   26023.78938330  .00000890  00000+0  13722-3 0  9995
2 56728  86.6061  54.0529 0002408  92.2994 267.8499 14.72260701144779
IRIDIUM 178             
1 56729U 23068V   26024.11744120  .00002304  00000+0  29983-3 0  9994
2 56729  86.6514  85.5907 0002207  81.2269 278.9202 14.80234776145051
IRIDIUM 179             
1 56730U 23068W   26023.63885052  .00002113  00000+0  27443-3 0  9999
2 56730  86.6761  94.3438 0002445  88.2533 271.8969 14.80257910144987
